{"fetched_at":"2026-04-27T21:03:10Z","count":13677,"tles":[{"name":"2026-090B","line1":"1 68827U 26090B   26114.67468931  .00037787  00000+0  20159-3 0  9997","line2":"2 68827  96.6473  34.2234 0011965 243.5513 116.4530 15.80215914   210","category":"Other"}]}