{
  "norad_id": 68827,
  "name": "2026-090B",
  "history": [
    {
      "epoch": "2026-04-24T16:11:33.156384Z",
      "apogee_km": 337.8556154307289,
      "perigee_km": 321.8034515161262,
      "latitude_deg": 5.315200403747913e-05,
      "longitude_deg": -61.36892966521399,
      "height_km": 336.6060432775502,
      "semi_major_axis_km": 6707.966533473427,
      "eccentricity": 0.0011965,
      "inclination_deg": 96.6473,
      "raan_deg": 34.2234,
      "arg_perigee_deg": 243.5513,
      "mean_anomaly_deg": 116.453,
      "mean_motion_rev_day": 15.80215914
    }
  ]
}